[{"OBJECT_NAME":"STARLINK-5734","OBJECT_ID":"2023-020AV","EPOCH":"2026-03-09T02:54:07.991712","MEAN_MOTION":15.02534125,"ECCENTRICITY":0.00011838,"INCLINATION":43.0053,"RA_OF_ASC_NODE":354.7649,"ARG_OF_PERICENTER":266.0726,"MEAN_ANOMALY":93.9981,"EPHEMERIS_TYPE":0,"CLASSIFICATION_TYPE":"U","NORAD_CAT_ID":55612,"ELEMENT_SET_NO":999,"REV_AT_EPOCH":16898,"BSTAR":-1.9338209e-5,"MEAN_MOTION_DOT":-4.65e-6,"MEAN_MOTION_DDOT":0},{"OBJECT_NAME":"SL-3 DEB","OBJECT_ID":"1988-032C","EPOCH":"2026-03-09T20:54:05.348736","MEAN_MOTION":15.06065434,"ECCENTRICITY":0.00240661,"INCLINATION":97.6252,"RA_OF_ASC_NODE":41.5186,"ARG_OF_PERICENTER":162.4496,"MEAN_ANOMALY":255.7854,"EPHEMERIS_TYPE":0,"CLASSIFICATION_TYPE":"U","NORAD_CAT_ID":24893,"ELEMENT_SET_NO":999,"REV_AT_EPOCH":81391,"BSTAR":0.00022425917,"MEAN_MOTION_DOT":3.232e-5,"MEAN_MOTION_DDOT":0}]
